CCSDS_OMM_VERS = 2.0
CREATION_DATE  = 
ORIGINATOR     = 

OBJECT_NAME    = STARLINK-35902
OBJECT_ID      = 2025-271K
CENTER_NAME    = EARTH
REF_FRAME      = TEME
TIME_SYSTEM    = UTC
MEAN_ELEMENT_THEORY = SGP/SGP4

EPOCH          = 2025-12-05T09:04:09.092928
MEAN_MOTION    = 15.78066460
ECCENTRICITY   = .00023347
INCLINATION    = 53.1580
RA_OF_ASC_NODE = 223.2443
ARG_OF_PERICENTER = 59.6166
MEAN_ANOMALY   = 300.5086

EPHEMERIS_TYPE = 0
CLASSIFICATION_TYPE = U
NORAD_CAT_ID   = 66626
ELEMENT_SET_NO = 999
REV_AT_EPOCH   = 305
BSTAR          = -.11865058E-2
MEAN_MOTION_DOT = -.202041E-2
MEAN_MOTION_DDOT = 0

CCSDS_OMM_VERS = 2.0
CREATION_DATE  = 
ORIGINATOR     = 

OBJECT_NAME    = STARLINK-35904
OBJECT_ID      = 2025-271L
CENTER_NAME    = EARTH
REF_FRAME      = TEME
TIME_SYSTEM    = UTC
MEAN_ELEMENT_THEORY = SGP/SGP4

EPOCH          = 2025-12-05T13:34:11.036064
MEAN_MOTION    = 15.82253684
ECCENTRICITY   = .00230845
INCLINATION    = 53.1555
RA_OF_ASC_NODE = 222.2787
ARG_OF_PERICENTER = 258.2844
MEAN_ANOMALY   = 101.5589

EPHEMERIS_TYPE = 0
CLASSIFICATION_TYPE = U
NORAD_CAT_ID   = 66627
ELEMENT_SET_NO = 999
REV_AT_EPOCH   = 304
BSTAR          = .27513739E-2
MEAN_MOTION_DOT = .631838E-2
MEAN_MOTION_DDOT = 0

CCSDS_OMM_VERS = 2.0
CREATION_DATE  = 
ORIGINATOR     = 

OBJECT_NAME    = STARLINK-35862
OBJECT_ID      = 2025-271M
CENTER_NAME    = EARTH
REF_FRAME      = TEME
TIME_SYSTEM    = UTC
MEAN_ELEMENT_THEORY = SGP/SGP4

EPOCH          = 2025-12-05T04:29:21.043104
MEAN_MOTION    = 15.75331783
ECCENTRICITY   = .00292278
INCLINATION    = 53.1565
RA_OF_ASC_NODE = 224.1852
ARG_OF_PERICENTER = 300.1043
MEAN_ANOMALY   = 59.7081

EPHEMERIS_TYPE = 0
CLASSIFICATION_TYPE = U
NORAD_CAT_ID   = 66628
ELEMENT_SET_NO = 999
REV_AT_EPOCH   = 302
BSTAR          = -.43866785E-1
MEAN_MOTION_DOT = -.5803272E-1
MEAN_MOTION_DDOT = 0

CCSDS_OMM_VERS = 2.0
CREATION_DATE  = 
ORIGINATOR     = 

OBJECT_NAME    = STARLINK-35956
OBJECT_ID      = 2025-271N
CENTER_NAME    = EARTH
REF_FRAME      = TEME
TIME_SYSTEM    = UTC
MEAN_ELEMENT_THEORY = SGP/SGP4

EPOCH          = 2025-12-05T09:01:28.164288
MEAN_MOTION    = 15.77830506
ECCENTRICITY   = .00016395
INCLINATION    = 53.1558
RA_OF_ASC_NODE = 223.2310
ARG_OF_PERICENTER = 14.6001
MEAN_ANOMALY   = 345.5067

EPHEMERIS_TYPE = 0
CLASSIFICATION_TYPE = U
NORAD_CAT_ID   = 66629
ELEMENT_SET_NO = 999
REV_AT_EPOCH   = 305
BSTAR          = -.50330653E-2
MEAN_MOTION_DOT = -.790113E-2
MEAN_MOTION_DDOT = 0

CCSDS_OMM_VERS = 2.0
CREATION_DATE  = 
ORIGINATOR     = 

OBJECT_NAME    = STARLINK-35949
OBJECT_ID      = 2025-271P
CENTER_NAME    = EARTH
REF_FRAME      = TEME
TIME_SYSTEM    = UTC
MEAN_ELEMENT_THEORY = SGP/SGP4

EPOCH          = 2025-12-05T22:42:06.418368
MEAN_MOTION    = 15.79792708
ECCENTRICITY   = .00204424
INCLINATION    = 53.1555
RA_OF_ASC_NODE = 220.3845
ARG_OF_PERICENTER = 212.5311
MEAN_ANOMALY   = 147.4453

EPHEMERIS_TYPE = 0
CLASSIFICATION_TYPE = U
NORAD_CAT_ID   = 66630
ELEMENT_SET_NO = 999
REV_AT_EPOCH   = 314
BSTAR          = .42394853E-2
MEAN_MOTION_DOT = .891493E-2
MEAN_MOTION_DDOT = 0

CCSDS_OMM_VERS = 2.0
CREATION_DATE  = 
ORIGINATOR     = 

OBJECT_NAME    = STARLINK-35965
OBJECT_ID      = 2025-271Q
CENTER_NAME    = EARTH
REF_FRAME      = TEME
TIME_SYSTEM    = UTC
MEAN_ELEMENT_THEORY = SGP/SGP4

EPOCH          = 2025-12-05T09:01:28.680960
MEAN_MOTION    = 15.77818734
ECCENTRICITY   = .00009867
INCLINATION    = 53.1561
RA_OF_ASC_NODE = 223.2310
ARG_OF_PERICENTER = 107.5861
MEAN_ANOMALY   = 252.5268

EPHEMERIS_TYPE = 0
CLASSIFICATION_TYPE = U
NORAD_CAT_ID   = 66631
ELEMENT_SET_NO = 999
REV_AT_EPOCH   = 305
BSTAR          = -.38561361E-2
MEAN_MOTION_DOT = -.617366E-2
MEAN_MOTION_DDOT = 0

CCSDS_OMM_VERS = 2.0
CREATION_DATE  = 
ORIGINATOR     = 

OBJECT_NAME    = STARLINK-35973
OBJECT_ID      = 2025-271R
CENTER_NAME    = EARTH
REF_FRAME      = TEME
TIME_SYSTEM    = UTC
MEAN_ELEMENT_THEORY = SGP/SGP4

EPOCH          = 2025-12-05T07:29:42.610272
MEAN_MOTION    = 15.78078056
ECCENTRICITY   = .00028678
INCLINATION    = 53.1556
RA_OF_ASC_NODE = 223.5424
ARG_OF_PERICENTER = 17.8112
MEAN_ANOMALY   = 342.3009

EPHEMERIS_TYPE = 0
CLASSIFICATION_TYPE = U
NORAD_CAT_ID   = 66632
ELEMENT_SET_NO = 999
REV_AT_EPOCH   = 300
BSTAR          = -.30652784E-2
MEAN_MOTION_DOT = -.503528E-2
MEAN_MOTION_DDOT = 0

CCSDS_OMM_VERS = 2.0
CREATION_DATE  = 
ORIGINATOR     = 

OBJECT_NAME    = STARLINK-35948
OBJECT_ID      = 2025-271S
CENTER_NAME    = EARTH
REF_FRAME      = TEME
TIME_SYSTEM    = UTC
MEAN_ELEMENT_THEORY = SGP/SGP4

EPOCH          = 2025-12-05T22:41:05.597088
MEAN_MOTION    = 15.79069844
ECCENTRICITY   = .00163166
INCLINATION    = 53.1553
RA_OF_ASC_NODE = 220.3799
ARG_OF_PERICENTER = 195.4791
MEAN_ANOMALY   = 164.5734

EPHEMERIS_TYPE = 0
CLASSIFICATION_TYPE = U
NORAD_CAT_ID   = 66633
ELEMENT_SET_NO = 999
REV_AT_EPOCH   = 314
BSTAR          = .45177823E-2
MEAN_MOTION_DOT = .918551E-2
MEAN_MOTION_DDOT = 0

CCSDS_OMM_VERS = 2.0
CREATION_DATE  = 
ORIGINATOR     = 

OBJECT_NAME    = STARLINK-35967
OBJECT_ID      = 2025-271T
CENTER_NAME    = EARTH
REF_FRAME      = TEME
TIME_SYSTEM    = UTC
MEAN_ELEMENT_THEORY = SGP/SGP4

EPOCH          = 2025-12-05T19:38:54.390912
MEAN_MOTION    = 15.76774905
ECCENTRICITY   = .00066718
INCLINATION    = 53.1561
RA_OF_ASC_NODE = 221.0120
ARG_OF_PERICENTER = 165.3616
MEAN_ANOMALY   = 194.7599

EPHEMERIS_TYPE = 0
CLASSIFICATION_TYPE = U
NORAD_CAT_ID   = 66634
ELEMENT_SET_NO = 999
REV_AT_EPOCH   = 308
BSTAR          = .27087931E-2
MEAN_MOTION_DOT = .469244E-2
MEAN_MOTION_DDOT = 0

CCSDS_OMM_VERS = 2.0
CREATION_DATE  = 
ORIGINATOR     = 

OBJECT_NAME    = STARLINK-35955
OBJECT_ID      = 2025-271U
CENTER_NAME    = EARTH
REF_FRAME      = TEME
TIME_SYSTEM    = UTC
MEAN_ELEMENT_THEORY = SGP/SGP4

EPOCH          = 2025-12-05T07:28:04.000224
MEAN_MOTION    = 15.77926643
ECCENTRICITY   = .00002549
INCLINATION    = 53.1554
RA_OF_ASC_NODE = 223.5353
ARG_OF_PERICENTER = 19.5529
MEAN_ANOMALY   = 340.5502

EPHEMERIS_TYPE = 0
CLASSIFICATION_TYPE = U
NORAD_CAT_ID   = 66635
ELEMENT_SET_NO = 999
REV_AT_EPOCH   = 304
BSTAR          = -.35347637E-2
MEAN_MOTION_DOT = -.571639E-2
MEAN_MOTION_DDOT = 0

CCSDS_OMM_VERS = 2.0
CREATION_DATE  = 
ORIGINATOR     = 

OBJECT_NAME    = STARLINK-35968
OBJECT_ID      = 2025-271V
CENTER_NAME    = EARTH
REF_FRAME      = TEME
TIME_SYSTEM    = UTC
MEAN_ELEMENT_THEORY = SGP/SGP4

EPOCH          = 2025-12-05T07:27:34.384896
MEAN_MOTION    = 15.77938142
ECCENTRICITY   = .00043858
INCLINATION    = 53.1551
RA_OF_ASC_NODE = 223.5547
ARG_OF_PERICENTER = 354.7844
MEAN_ANOMALY   = 5.3131

EPHEMERIS_TYPE = 0
CLASSIFICATION_TYPE = U
NORAD_CAT_ID   = 66636
ELEMENT_SET_NO = 999
REV_AT_EPOCH   = 304
BSTAR          = -.32849268E-2
MEAN_MOTION_DOT = -.534626E-2
MEAN_MOTION_DDOT = 0

CCSDS_OMM_VERS = 2.0
CREATION_DATE  = 
ORIGINATOR     = 

OBJECT_NAME    = STARLINK-35953
OBJECT_ID      = 2025-271W
CENTER_NAME    = EARTH
REF_FRAME      = TEME
TIME_SYSTEM    = UTC
MEAN_ELEMENT_THEORY = SGP/SGP4

EPOCH          = 2025-12-05T07:27:01.647936
MEAN_MOTION    = 15.77893998
ECCENTRICITY   = .00033286
INCLINATION    = 53.1544
RA_OF_ASC_NODE = 223.5332
ARG_OF_PERICENTER = 15.4798
MEAN_ANOMALY   = 344.6325

EPHEMERIS_TYPE = 0
CLASSIFICATION_TYPE = U
NORAD_CAT_ID   = 66637
ELEMENT_SET_NO = 999
REV_AT_EPOCH   = 304
BSTAR          = -.31424924E-2
MEAN_MOTION_DOT = -.51156E-2
MEAN_MOTION_DDOT = 0

