STARLINK-35902          
1 66626U 25271K   25339.37788302 -.00202041  00000+0 -11865-2 0  9996
2 66626  53.1580 223.2443 0002334  59.6166 300.5086 15.78066460  3058
STARLINK-35904          
1 66627U 25271L   25339.56540551  .00631838  00000+0  27514-2 0  9996
2 66627  53.1555 222.2787 0023084 258.2844 101.5589 15.82253684  3043
STARLINK-35862          
1 66628U 25271M   25339.18704911 -.05803272  00000+0 -43867-1 0  9995
2 66628  53.1565 224.1852 0029227 300.1043  59.7081 15.75331783  3020
STARLINK-35956          
1 66629U 25271N   25339.37602042 -.00790113  00000+0 -50331-2 0  9998
2 66629  53.1558 223.2310 0001639  14.6001 345.5067 15.77830506  3052
STARLINK-35949          
1 66630U 25271P   25339.94590762  .00891493  00000+0  42395-2 0  9990
2 66630  53.1555 220.3845 0020442 212.5311 147.4453 15.79792708  3149
STARLINK-35965          
1 66631U 25271Q   25339.37602640 -.00617366  00000+0 -38561-2 0  9994
2 66631  53.1561 223.2310 0000986 107.5861 252.5268 15.77818734  3058
STARLINK-35973          
1 66632U 25271R   25339.31229873 -.00503528  00000+0 -30653-2 0  9990
2 66632  53.1556 223.5424 0002867  17.8112 342.3009 15.78078056  3006
STARLINK-35948          
1 66633U 25271S   25339.94520367  .00918551  00000+0  45178-2 0  9994
2 66633  53.1553 220.3799 0016316 195.4791 164.5734 15.79069844  3144
STARLINK-35967          
1 66634U 25271T   25339.81868508  .00469244  00000+0  27088-2 0  9993
2 66634  53.1561 221.0120 0006671 165.3616 194.7599 15.76774905  3080
STARLINK-35955          
1 66635U 25271U   25339.31115741 -.00571639  00000+0 -35348-2 0  9995
2 66635  53.1554 223.5353 0000254  19.5529 340.5502 15.77926643  3042
STARLINK-35968          
1 66636U 25271V   25339.31081464 -.00534626  00000+0 -32849-2 0  9998
2 66636  53.1551 223.5547 0004385 354.7844   5.3131 15.77938142  3049
STARLINK-35953          
1 66637U 25271W   25339.31043574 -.00511560  00000+0 -31425-2 0  9990
2 66637  53.1544 223.5332 0003328  15.4798 344.6325 15.77893998  3042
